COSMOS 2251 DEB         
1 36042U 93036AXD 17335.72550371  .00005006  00000-0  33261-3 0  9994
2 36042  73.8672 109.4127 0055516  33.2817 327.1842 15.06213495442889
